NORAD_CAT_ID,OBJECT_NAME,OBJECT_TYPE,EPOCH,MEAN_MOTION,ECCENTRICITY,INCLINATION,RA_OF_ASC_NODE,ARG_OF_PERICENTER,MEAN_ANOMALY,BSTAR,MEAN_MOTION_DOT,MEAN_MOTION_DDOT,TLE_LINE0,TLE_LINE1,TLE_LINE2,SEMIMAJOR_AXIS,PERIOD,APOGEE,PERIGEE,DECAYED
55396.0,STARLINK-5283,PAYLOAD,2024-01-03 03:24:07,14.9833056,0.0002614,69.9988,272.6984,265.9858,94.1002,-9.6515e-07,-1.04e-06,0.0,0 STARLINK-5283,1 55396U 23014F   24003.14175215 -.00000104  00000-0 -96515-6 0  9992,2 55396  69.9988 272.6984 0002614 265.9858  94.1002 14.98330560 51802,6950.191,96.107,573.873,570.239,0.0
55396.0,STARLINK-5283,PAYLOAD,2024-01-03 22:37:44,14.98327512,0.0002615,69.9986,270.6779,262.7278,97.3584,-3.7737e-05,-5.43e-06,0.0,0 STARLINK-5283,1 55396U 23014F   24003.94287495 -.00000543  00000-0 -37737-4 0  9990,2 55396  69.9986 270.6779 0002615 262.7278  97.3584 14.98327512 52862,6950.201,96.107,573.883,570.248,0.0
55396.0,STARLINK-5283,PAYLOAD,2024-01-04 03:26:08,14.9833069,0.0002635,69.9986,270.1735,263.9146,96.1713,2.2005e-06,-6.7e-07,0.0,0 STARLINK-5283,1 55396U 23014F   24004.14315190 -.00000067  00000-0  22005-5 0  9990,2 55396  69.9986 270.1735 0002635 263.9146  96.1713 14.98330690 51959,6950.191,96.107,573.887,570.224,0.0
55396.0,STARLINK-5283,PAYLOAD,2024-01-04 22:39:45,14.98331639,0.0002766,69.9983,268.1537,265.4699,94.6144,-9.7046e-06,-2.09e-06,0.0,0 STARLINK-5283,1 55396U 23014F   24004.94427094 -.00000209  00000-0 -97046-5 0  9991,2 55396  69.9983 268.1537 0002766 265.4699  94.6144 14.98331639 53012,6950.188,96.107,573.975,570.13,0.0
55396.0,STARLINK-5283,PAYLOAD,2024-01-05 03:28:08,14.98334016,0.0002752,69.9983,267.649,266.249,93.8354,3.603e-05,3.37e-06,0.0,0 STARLINK-5283,1 55396U 23014F   24005.14454782  .00000337  00000-0  36030-4 0  9993,2 55396  69.9983 267.6490 0002752 266.2490  93.8354 14.98334016 52102,6950.18,96.107,573.958,570.133,0.0
55396.0,STARLINK-5283,PAYLOAD,2024-01-05 19:29:29,14.9832859,0.0002586,69.9986,265.9666,261.1316,98.955,-1.6229e-05,-2.87e-06,0.0,0 STARLINK-5283,1 55396U 23014F   24005.81215274 -.00000287  00000-0 -16229-4 0  9992,2 55396  69.9986 265.9666 0002586 261.1316  98.9550 14.98328590 52202,6950.197,96.107,573.86,570.265,0.0
55396.0,STARLINK-5283,PAYLOAD,2024-01-05 21:05:38,14.98327616,0.0002587,69.9986,265.7982,260.8034,99.2833,-4.8816e-06,-1.51e-06,0.0,0 STARLINK-5283,1 55396U 23014F   24005.87891299 -.00000151  00000-0 -48816-5 0  9993,2 55396  69.9986 265.7982 0002587 260.8034  99.2833 14.98327616 53156,6950.2,96.107,573.863,570.267,0.0
55396.0,STARLINK-5283,PAYLOAD,2024-01-06 03:30:10,14.98328201,0.00026,69.9986,265.1253,261.5974,98.4891,-1.3492e-06,-1.09e-06,0.0,0 STARLINK-5283,1 55396U 23014F   24006.14595287 -.00000109  00000-0 -13492-5 0  9997,2 55396  69.9986 265.1253 0002600 261.5974  98.4891 14.98328201 53198,6950.198,96.107,573.871,570.256,0.0
55396.0,STARLINK-5283,PAYLOAD,2024-01-06 19:31:30,14.983313,0.000256,69.9986,263.4425,258.9252,101.1619,-9.1122e-06,-2.02e-06,0.0,0 STARLINK-5283,1 55396U 23014F   24006.81355097 -.00000202  00000-0 -91122-5 0  9994,2 55396  69.9986 263.4425 0002560 258.9252 101.1619 14.98331300 52355,6950.189,96.107,573.833,570.275,0.0
55396.0,STARLINK-5283,PAYLOAD,2024-01-06 21:07:38,14.98331083,0.0002561,69.9986,263.2741,258.9426,101.1445,-1.0446e-05,-2.18e-06,0.0,0 STARLINK-5283,1 55396U 23014F   24006.88031105 -.00000218  00000-0 -10446-4 0  9998,2 55396  69.9986 263.2741 0002561 258.9426 101.1445 14.98331083 53309,6950.19,96.107,573.834,570.275,0.0
55396.0,STARLINK-5283,PAYLOAD,2024-01-07 03:32:11,14.98331353,0.000255,69.9986,262.6007,258.1012,101.9861,-4.5711e-06,-1.47e-06,0.0,0 STARLINK-5283,1 55396U 23014F   24007.14735048 -.00000147  00000-0 -45711-5 0  9990,2 55396  69.9986 262.6007 0002550 258.1012 101.9861 14.98331353 53342,6950.189,96.107,573.826,570.281,0.0
55396.0,STARLINK-5283,PAYLOAD,2024-01-07 19:33:31,14.98328597,0.0002538,69.9985,260.9167,261.4617,98.6255,2.5684e-05,2.13e-06,0.0,0 STARLINK-5283,1 55396U 23014F   24007.81495138  .00000213  00000-0  25684-4 0  9995,2 55396  69.9985 260.9167 0002538 261.4617  98.6255 14.98328597 52505,6950.197,96.107,573.826,570.298,0.0
55396.0,STARLINK-5283,PAYLOAD,2024-01-07 22:45:47,14.98328513,0.0002538,69.9985,260.58,261.2738,98.8133,2.3843e-05,1.92e-06,0.0,0 STARLINK-5283,1 55396U 23014F   24007.94847154  .00000192  00000-0  23843-4 0  9999,2 55396  69.9985 260.5800 0002538 261.2738  98.8133 14.98328513 53468,6950.197,96.107,573.826,570.299,0.0
55396.0,STARLINK-5283,PAYLOAD,2024-01-08 03:34:12,14.98328781,0.0002532,69.9985,260.075,261.781,98.3062,2.4794e-05,2.03e-06,0.0,0 STARLINK-5283,1 55396U 23014F   24008.14875143  .00000203  00000-0  24794-4 0  9990,2 55396  69.9985 260.0750 0002532 261.7810  98.3062 14.98328781 53493,6950.197,96.107,573.821,570.302,0.0
55396.0,STARLINK-5283,PAYLOAD,2024-01-08 19:35:32,14.98328913,0.000247,69.9985,258.3917,258.9506,101.1376,-1.9182e-06,-1.16e-06,0.0,0 STARLINK-5283,1 55396U 23014F   24008.81635220 -.00000116  00000-0 -19182-5 0  9995,2 55396  69.9985 258.3917 0002470 258.9506 101.1376 14.98328913 52654,6950.196,96.107,573.778,570.345,0.0
55396.0,STARLINK-5283,PAYLOAD,2024-01-08 22:47:49,14.98328186,0.0002492,69.9986,258.0548,258.887,101.2009,-1.0297e-05,-2.16e-06,0.0,0 STARLINK-5283,1 55396U 23014F   24008.94987294 -.00000216  00000-0 -10297-4 0  9998,2 55396  69.9986 258.0548 0002492 258.8870 101.2009 14.98328186 53612,6950.199,96.107,573.795,570.332,0.0
55396.0,STARLINK-5283,PAYLOAD,2024-01-09 02:00:05,14.98328176,0.0002495,69.9985,257.7182,259.2261,100.8617,-1.0472e-05,-2.18e-06,0.0,0 STARLINK-5283,1 55396U 23014F   24009.08339310 -.00000218  00000-0 -10472-4 0  9991,2 55396  69.9985 257.7182 0002495 259.2261 100.8617 14.98328176 53634,6950.199,96.107,573.798,570.329,0.0
55396.0,STARLINK-5283,PAYLOAD,2024-01-09 19:37:34,14.98322915,0.0002443,69.9987,255.867,257.5988,102.4897,-6.1069e-05,-8.21e-06,0.0,0 STARLINK-5283,1 55396U 23014F   24009.81775966 -.00000821  00000-0 -61069-4 0  9991,2 55396  69.9987 255.8670 0002443 257.5988 102.4897 14.98322915 52808,6950.215,96.107,573.778,570.382,0.0
55396.0,STARLINK-5283,PAYLOAD,2024-01-10 02:02:07,14.9831807,0.0002534,69.9984,255.193,260.9253,99.1619,-0.00011414,-1.454e-05,0.0,0 STARLINK-5283,1 55396U 23014F   24010.08480587 -.00001454  00000-0 -11414-3 0  9995,2 55396  69.9984 255.1930 0002534 260.9253  99.1619 14.98318070 52846,6950.23,96.108,573.856,570.334,0.0
55396.0,STARLINK-5283,PAYLOAD,2024-01-10 19:39:35,14.98326401,0.0002814,69.9977,253.3395,272.4288,87.6549,-6.3167e-06,-1.68e-06,0.0,0 STARLINK-5283,1 55396U 23014F   24010.81916116 -.00000168  00000-0 -63167-5 0  9993,2 55396  69.9977 253.3395 0002814 272.4288  87.6549 14.98326401 52953,6950.204,96.107,574.025,570.113,0.0
55396.0,STARLINK-5283,PAYLOAD,2024-01-11 02:04:07,14.98332214,0.0002613,69.998,252.6669,267.3238,92.7622,7.1155e-05,7.56e-06,0.0,0 STARLINK-5283,1 55396U 23014F   24011.08619543  .00000756  00000-0  71155-4 0  9993,2 55396  69.9980 252.6669 0002613 267.3238  92.7622 14.98332214 52990,6950.186,96.107,573.867,570.235,0.0
55396.0,STARLINK-5283,PAYLOAD,2024-01-11 19:41:35,14.98330248,0.0002655,69.9977,250.8147,270.1083,89.9772,0.0001708,1.946e-05,0.0,0 STARLINK-5283,1 55396U 23014F   24011.82055315  .00001946  00000-0  17080-3 0  9994,2 55396  69.9977 250.8147 0002655 270.1083  89.9772 14.98330248 54040,6950.192,96.107,573.902,570.212,0.0
55396.0,STARLINK-5283,PAYLOAD,2024-01-12 02:06:07,14.98334794,0.0002564,69.998,250.142,268.3851,91.7015,0.00021017,2.416e-05,0.0,0 STARLINK-5283,1 55396U 23014F   24012.08758862  .00002416  00000-0  21017-3 0  9998,2 55396  69.9980 250.1420 0002564 268.3851  91.7015 14.98334794 53143,6950.178,96.107,573.825,570.261,0.0
55396.0,STARLINK-5283,PAYLOAD,2024-01-12 19:43:35,14.98433144,0.0002791,69.9988,248.2908,260.5681,99.5163,-0.0016401,-0.0001966,0.0,0 STARLINK-5283,1 55396U 23014F   24012.82194026 -.00019660  00000-0 -16401-2 0  9997,2 55396  69.9988 248.2908 0002791 260.5681  99.5163 14.98433144 53258,6949.874,96.1,573.679,569.799,0.0
55396.0,STARLINK-5283,PAYLOAD,2024-01-12 21:19:44,14.98332297,0.0002249,69.9992,248.1226,261.8011,98.2893,1.9475e-05,1.39e-06,0.0,0 STARLINK-5283,1 55396U 23014F   24012.88871348  .00000139  00000-0  19475-4 0  9997,2 55396  69.9992 248.1226 0002249 261.8011  98.2893 14.98332297 54203,6950.186,96.107,573.614,570.488,0.0
55396.0,STARLINK-5283,PAYLOAD,2024-01-13 00:32:00,14.98361033,0.0002671,69.999,247.7856,268.9279,91.1574,-0.00051217,-6.204e-05,0.0,0 STARLINK-5283,1 55396U 23014F   24013.02222799 -.00006204  00000-0 -51217-3 0  9994,2 55396  69.9990 247.7856 0002671 268.9279  91.1574 14.98361033 53283,6950.097,96.105,573.818,570.106,0.0
55396.0,STARLINK-5283,PAYLOAD,2024-01-13 19:45:37,14.9833395,0.0002428,69.9987,245.7651,264.8627,95.2255,-6.6808e-05,-8.9e-06,0.0,0 STARLINK-5283,1 55396U 23014F   24013.82335162 -.00000890  00000-0 -66808-4 0  9999,2 55396  69.9987 245.7651 0002428 264.8627  95.2255 14.98333950 53404,6950.181,96.107,573.733,570.358,0.0
55396.0,STARLINK-5283,PAYLOAD,2024-01-14 14:59:14,14.98326991,0.0002529,69.9988,243.7452,262.1836,97.9036,8.0551e-05,8.68e-06,0.0,0 STARLINK-5283,1 55396U 23014F   24014.62446849  .00000868  00000-0  80551-4 0  9997,2 55396  69.9988 243.7452 0002529 262.1836  97.9036 14.98326991 54467,6950.202,96.107,573.825,570.309,0.0
55396.0,STARLINK-5283,PAYLOAD,2024-01-14 19:47:38,14.9833231,0.0002435,69.9989,243.2404,260.2461,99.8423,1.7994e-05,1.22e-06,0.0,0 STARLINK-5283,1 55396U 23014F   24014.82474718  .00000122  00000-0  17994-4 0  9999,2 55396  69.9989 243.2404 0002435 260.2461  99.8423 14.98332310 53551,6950.186,96.107,573.743,570.358,0.0
55396.0,STARLINK-5283,PAYLOAD,2024-01-14 21:23:46,14.98319999,0.0002414,69.9988,243.0719,258.7128,101.376,0.00022204,2.557e-05,0.0,0 STARLINK-5283,1 55396U 23014F   24014.89150899  .00002557  00000-0  22204-3 0  9990,2 55396  69.9988 243.0719 0002414 258.7128 101.3760 14.98319999 54503,6950.224,96.108,573.767,570.411,0.0
